NEXTSAT-1               
1 43811U 18099BF  26068.68342010  .00004546  00000+0  29857-3 0  9992
2 43811  97.4203 114.8574 0011320 323.9610  36.0854 15.08057555396886
STARLINK-3716           
1 52092U 22029E   26068.61808543  .00000025  00000+0  19643-4 0  9993
2 52092  53.2165  89.4402 0001320  97.6812 262.4330 15.08836840220645
