[{"OBJECT_NAME":"NEXTSAT-1","OBJECT_ID":"2018-099BF","EPOCH":"2026-03-09T16:24:07.497504","MEAN_MOTION":15.08057555,"ECCENTRICITY":0.001132,"INCLINATION":97.4203,"RA_OF_ASC_NODE":114.8574,"ARG_OF_PERICENTER":323.961,"MEAN_ANOMALY":36.0854,"EPHEMERIS_TYPE":0,"CLASSIFICATION_TYPE":"U","NORAD_CAT_ID":43811,"ELEMENT_SET_NO":999,"REV_AT_EPOCH":39688,"BSTAR":0.00029857014,"MEAN_MOTION_DOT":4.546e-5,"MEAN_MOTION_DDOT":0},{"OBJECT_NAME":"STARLINK-3716","OBJECT_ID":"2022-029E","EPOCH":"2026-03-09T14:50:02.581152","MEAN_MOTION":15.0883684,"ECCENTRICITY":0.00013199,"INCLINATION":53.2165,"RA_OF_ASC_NODE":89.4402,"ARG_OF_PERICENTER":97.6812,"MEAN_ANOMALY":262.433,"EPHEMERIS_TYPE":0,"CLASSIFICATION_TYPE":"U","NORAD_CAT_ID":52092,"ELEMENT_SET_NO":999,"REV_AT_EPOCH":22064,"BSTAR":1.964301e-5,"MEAN_MOTION_DOT":2.5e-7,"MEAN_MOTION_DDOT":0}]
